NORAD_CAT_ID,OBJECT_NAME,OBJECT_TYPE,EPOCH,MEAN_MOTION,ECCENTRICITY,INCLINATION,RA_OF_ASC_NODE,ARG_OF_PERICENTER,MEAN_ANOMALY,BSTAR,MEAN_MOTION_DOT,MEAN_MOTION_DDOT,TLE_LINE0,TLE_LINE1,TLE_LINE2,SEMIMAJOR_AXIS,PERIOD,APOGEE,PERIGEE,DECAYED
51462.0,STARLINK-3166,PAYLOAD,2022-06-01 14:00:01,15.08880243,0.0002025,53.2189,341.1846,43.6027,35.1341,-0.0031178,-0.00049622,0.0,0 STARLINK-3166,1 51462U 22010G   22152.58334491 -.00049622  00000-0 -31178-2 0  9999,2 51462  53.2189 341.1846 0002025  43.6027  35.1341 15.08880243 19394,6917.757,95.435,541.023,538.222,0.0
51462.0,STARLINK-3166,PAYLOAD,2022-06-01 20:00:01,15.08839853,0.0002242,53.2187,340.0637,41.6661,315.7944,-0.00042303,-7.015e-05,0.0,0 STARLINK-3166,1 51462U 22010G   22152.83334491 -.00007015  00000-0 -42303-3 0  9990,2 51462  53.2187 340.0637 0002242  41.6661 315.7944 15.08839853  1300,6917.880999999999,95.438,541.297,538.195,0.0
51462.0,STARLINK-3166,PAYLOAD,2022-06-02 18:16:07,15.08845137,0.0002169,53.2205,335.8971,42.5264,317.5896,8.2156e-05,1.02e-05,0.0,0 STARLINK-3166,1 51462U 22010G   22153.76119441  .00001020  00000-0  82156-4 0  9998,2 51462  53.2205 335.8971 0002169  42.5264 317.5896 15.08845137 19577,6917.865,95.437,541.23,538.229,0.0
51462.0,STARLINK-3166,PAYLOAD,2022-06-02 19:51:30,15.0884805,0.0002195,53.2204,335.5994,43.1593,316.9571,7.5856e-05,9.19e-06,0.0,0 STARLINK-3166,1 51462U 22010G   22153.82743244  .00000919  00000-0  75856-4 0  9994,2 51462  53.2204 335.5994 0002195  43.1593 316.9571 15.08848050 19119,6917.856,95.437,541.239,538.202,0.0
51462.0,STARLINK-3166,PAYLOAD,2022-06-03 11:45:21,15.08845199,0.00023,53.2198,332.6262,45.5642,314.5538,-4.1727e-05,-9.53e-06,0.0,0 STARLINK-3166,1 51462U 22010G   22154.48983504 -.00000953  00000-0 -41727-4 0  9992,2 51462  53.2198 332.6262 0002300  45.5642 314.5538 15.08845199 19215,6917.864000000001,95.437,541.321,538.138,0.0
51462.0,STARLINK-3166,PAYLOAD,2022-06-03 16:31:31,15.08844035,0.0002304,53.2205,331.7344,45.2956,314.8223,-4.8228e-05,-1.056e-05,0.0,0 STARLINK-3166,1 51462U 22010G   22154.68855522 -.00001056  00000-0 -48228-4 0  9990,2 51462  53.2205 331.7344 0002304  45.2956 314.8223 15.08844035 19249,6917.868,95.437,541.327,538.139,0.0
51462.0,STARLINK-3166,PAYLOAD,2022-06-04 10:00:44,15.08848621,0.0002344,53.2202,328.4637,45.7113,314.4071,4.8517e-05,4.84e-06,0.0,0 STARLINK-3166,1 51462U 22010G   22155.41718660  .00000484  00000-0  48517-4 0  9996,2 51462  53.2202 328.4637 0002344  45.7113 314.4071 15.08848621 19824,6917.854,95.437,541.341,538.097,0.0
51462.0,STARLINK-3166,PAYLOAD,2022-06-05 22:00:00,15.08810306,0.0002285,53.2196,321.7341,38.1768,191.3605,0.0021456999999999,0.00033999,0.0,0 STARLINK-3166,1 51462U 22010G   22156.91667824  .00033999  00000-0  21457-2 0  9996,2 51462  53.2196 321.7341 0002285  38.1768 191.3605 15.08810306 20040,6917.971,95.439,541.4169999999998,538.255,0.0
51462.0,STARLINK-3166,PAYLOAD,2022-06-06 14:00:01,15.08849549,0.0002115,53.2198,318.7406,42.6314,210.0581,-0.0012715,-0.00020473,0.0,0 STARLINK-3166,1 51462U 22010G   22157.58334491 -.00020473  00000-0 -12715-2 0  9993,2 51462  53.2198 318.7406 0002115  42.6314 210.0581 15.08849549 20143,6917.851,95.437,541.179,538.253,0.0
51462.0,STARLINK-3166,PAYLOAD,2022-06-06 22:00:00,15.08821699,0.0002257,53.2194,317.2456,38.6555,225.6353,0.002809,0.00044679,0.0,0 STARLINK-3166,1 51462U 22010G   22157.91667824  .00044679  00000-0  28090-2 0  9994,2 51462  53.2194 317.2456 0002257  38.6555 225.6353 15.08821699  1309,6917.936,95.439,541.363,538.24,0.0
51462.0,STARLINK-3166,PAYLOAD,2022-06-07 03:11:33,15.08839101,0.0002168,53.22,316.2723,43.1892,316.927,3.283e-05,2.34e-06,0.0,0 STARLINK-3166,1 51462U 22010G   22158.13302891  .00000234  00000-0  32830-4 0  9997,2 51462  53.2200 316.2723 0002168  43.1892 316.9270 15.08839101 20231,6917.8830000000025,95.438,541.248,538.248,0.0
51462.0,STARLINK-3166,PAYLOAD,2022-06-07 11:08:29,15.08842672,0.0002159,53.2201,314.7854,43.6462,316.4701,5.1088e-05,5.25e-06,0.0,0 STARLINK-3166,1 51462U 22010G   22158.46422640  .00000525  00000-0  51088-4 0  9997,2 51462  53.2201 314.7854 0002159  43.6462 316.4701 15.08842672 19811,6917.871999999999,95.437,541.231,538.244,0.0
51462.0,STARLINK-3166,PAYLOAD,2022-06-07 20:40:47,15.08845472,0.000212,53.2211,313.0015,45.0531,315.0633,7.893699999999999e-05,9.68e-06,0.0,0 STARLINK-3166,1 51462U 22010G   22158.86166287  .00000968  00000-0  78937-4 0  9996,2 51462  53.2211 313.0015 0002120  45.0531 315.0633 15.08845472 19870,6917.864000000001,95.437,541.195,538.262,0.0
51462.0,STARLINK-3166,PAYLOAD,2022-06-08 10:59:17,15.0882718,0.0001996,53.2202,310.3251,39.7813,320.3325,-2.3709e-05,-6.65e-06,0.0,0 STARLINK-3166,1 51462U 22010G   22159.45783893 -.00000665  00000-0 -23709-4 0  9993,2 51462  53.2202 310.3251 0001996  39.7813 320.3325 15.08827180 20432,6917.92,95.438,541.165,538.404,0.0
51462.0,STARLINK-3166,PAYLOAD,2022-06-08 20:31:36,15.0882838,0.0002036,53.22,308.541,40.757,319.3574,-1.4648e-05,-5.21e-06,0.0,0 STARLINK-3166,1 51462U 22010G   22159.85528088 -.00000521  00000-0 -14648-4 0  9993,2 51462  53.2200 308.5410 0002036  40.7570 319.3574 15.08828380 20026,6917.916,95.438,541.189,538.372,0.0
51462.0,STARLINK-3166,PAYLOAD,2022-06-09 09:14:41,15.0883408,0.0001999,53.221,306.1626,38.0668,322.0465,1.3521e-08,-2.88e-06,0.0,0 STARLINK-3166,1 51462U 22010G   22160.38519950 -.00000288  00000-0  13521-7 0  9992,2 51462  53.2210 306.1626 0001999  38.0668 322.0465 15.08834080 20108,6917.898,95.438,541.146,538.381,0.0
51462.0,STARLINK-3166,PAYLOAD,2022-06-09 14:00:50,15.08842463,0.0002102,53.2207,305.2705,42.353,317.7624,-4.0179e-05,-9.28e-06,0.0,0 STARLINK-3166,1 51462U 22010G   22160.58391559 -.00000928  00000-0 -40179-4 0  9995,2 51462  53.2207 305.2705 0002102  42.3530 317.7624 15.08842463 20602,6917.873000000001,95.437,541.192,538.284,0.0
51462.0,STARLINK-3166,PAYLOAD,2022-06-10 09:05:27,15.08855327,0.0002082,53.2203,301.702,41.2238,318.8912,-3.2265e-05,-8.02e-06,0.0,0 STARLINK-3166,1 51462U 22010G   22161.37878571 -.00000802  00000-0 -32265-4 0  9995,2 51462  53.2203 301.7020 0002082  41.2238 318.8912 15.08855327 20727,6917.834,95.437,541.139,538.258,0.0
51462.0,STARLINK-3166,PAYLOAD,2022-06-10 15:27:00,15.0884207,0.0002023,53.2206,300.5128,40.2638,319.8504,0.00019466,2.811e-05,0.0,0 STARLINK-3166,1 51462U 22010G   22161.64375052  .00002811  00000-0  19466-3 0  9998,2 51462  53.2206 300.5128 0002023  40.2638 319.8504 15.08842070 20767,6917.874,95.437,541.139,538.34,0.0
51462.0,STARLINK-3166,PAYLOAD,2022-06-11 04:10:06,15.0883217,0.0001898,53.2196,298.1351,37.5624,322.5501,2.1229e-05,5e-07,0.0,0 STARLINK-3166,1 51462U 22010G   22162.17368225  .00000050  00000-0  21229-4 0  9995,2 51462  53.2196 298.1351 0001898  37.5624 322.5501 15.08832170 20845,6917.904,95.438,541.082,538.456,0.0
51462.0,STARLINK-3166,PAYLOAD,2022-06-11 15:17:48,15.08831923,0.0002013,53.2197,296.0526,41.4529,318.6615,-2.8049e-05,-7.34e-06,0.0,0 STARLINK-3166,1 51462U 22010G   22162.63736852 -.00000734  00000-0 -28049-4 0  9999,2 51462  53.2197 296.0526 0002013  41.4529 318.6615 15.08831923 20448,6917.905,95.438,541.163,538.378,0.0
51462.0,STARLINK-3166,PAYLOAD,2022-06-12 13:33:11,15.08870404,0.000285,53.2197,291.89,52.2831,307.8419,-0.00035271,-5.903e-05,0.0,0 STARLINK-3166,1 51462U 22010G   22163.56471468 -.00005903  00000-0 -35271-3 0  9998,2 51462  53.2197 291.8900 0002850  52.2831 307.8419 15.08870404 21059,6917.7869999999975,95.436,541.624,537.681,0.0
51462.0,STARLINK-3166,PAYLOAD,2022-06-12 18:19:20,15.08863409,0.0002057,53.2195,290.9979,46.0244,314.0917,-0.00017667,-3.101e-05,0.0,0 STARLINK-3166,1 51462U 22010G   22163.76343309 -.00003101  00000-0 -17667-3 0  9999,2 51462  53.2195 290.9979 0002057  46.0244 314.0917 15.08863409 20612,6917.809,95.436,541.097,538.251,0.0
51462.0,STARLINK-3166,PAYLOAD,2022-06-13 11:48:35,15.08842709,0.0002155,53.2196,287.7272,43.9166,316.1997,0.00025314,3.743e-05,0.0,0 STARLINK-3166,1 51462U 22010G   22164.49207998  .00003743  00000-0  25314-3 0  9991,2 51462  53.2196 287.7272 0002155  43.9166 316.1997 15.08842709 21196,6917.871999999999,95.437,541.2280000000002,538.246,0.0
51462.0,STARLINK-3166,PAYLOAD,2022-06-13 14:59:22,15.08848648,0.0002191,53.2189,287.132,44.4496,315.6671,0.00033562,5.059e-05,0.0,0 STARLINK-3166,1 51462U 22010G   22164.62456179  .00005059  00000-0  33562-3 0  9999,2 51462  53.2189 287.1320 0002191  44.4496 315.6671 15.08848648 20749,6917.854,95.437,541.235,538.203,0.0
51462.0,STARLINK-3166,PAYLOAD,2022-06-14 11:39:22,15.08847411,0.000215,53.2185,283.2663,41.2504,318.8651,6.599e-05,7.62e-06,0.0,0 STARLINK-3166,1 51462U 22010G   22165.48567836  .00000762  00000-0  65990-4 0  9994,2 51462  53.2185 283.2663 0002150  41.2504 318.8651 15.08847411 20876,6917.858,95.437,541.21,538.235,0.0
51462.0,STARLINK-3166,PAYLOAD,2022-06-14 18:00:55,15.08838456,0.0002122,53.2193,282.0777,39.2457,320.8689,-8.4418e-06,-4.23e-06,0.0,0 STARLINK-3166,1 51462U 22010G   22165.75064607 -.00000423  00000-0 -84418-5 0  9995,2 51462  53.2193 282.0777 0002122  39.2457 320.8689 15.08838456 21381,6917.885,95.438,541.2180000000002,538.2819999999998,0.0
51462.0,STARLINK-3166,PAYLOAD,2022-06-15 14:40:56,15.08836264,0.0002091,53.2195,278.2118,37.9902,322.1237,-2.4746e-05,-6.82e-06,0.0,0 STARLINK-3166,1 51462U 22010G   22166.61176738 -.00000682  00000-0 -24746-4 0  9994,2 51462  53.2195 278.2118 0002091  37.9902 322.1237 15.08836264 21046,6917.892,95.438,541.203,538.31,0.0
51462.0,STARLINK-3166,PAYLOAD,2022-06-16 00:13:14,15.08843064,0.0002127,53.2193,276.4276,36.9927,323.1211,5.0281e-05,5.12e-06,0.0,0 STARLINK-3166,1 51462U 22010G   22167.00920107  .00000512  00000-0  50281-4 0  9998,2 51462  53.2193 276.4276 0002127  36.9927 323.1211 15.08843064 21101,6917.871,95.437,541.207,538.265,0.0
